[{"OBJECT_NAME":"STARLINK-5568","OBJECT_ID":"2023-013AT","EPOCH":"2026-03-09T23:25:27.304608","MEAN_MOTION":15.02536934,"ECCENTRICITY":0.00012973,"INCLINATION":43.0038,"RA_OF_ASC_NODE":311.668,"ARG_OF_PERICENTER":269.3719,"MEAN_ANOMALY":90.6975,"EPHEMERIS_TYPE":0,"CLASSIFICATION_TYPE":"U","NORAD_CAT_ID":55372,"ELEMENT_SET_NO":999,"REV_AT_EPOCH":17160,"BSTAR":3.8734465e-5,"MEAN_MOTION_DOT":3.2e-6,"MEAN_MOTION_DDOT":0},{"OBJECT_NAME":"NOAA 17 DEB","OBJECT_ID":"2002-032BW","EPOCH":"2026-03-08T22:40:23.580768","MEAN_MOTION":15.05196658,"ECCENTRICITY":0.00149213,"INCLINATION":98.7181,"RA_OF_ASC_NODE":121.0481,"ARG_OF_PERICENTER":217.4424,"MEAN_ANOMALY":142.5761,"EPHEMERIS_TYPE":0,"CLASSIFICATION_TYPE":"U","NORAD_CAT_ID":48737,"ELEMENT_SET_NO":999,"REV_AT_EPOCH":26108,"BSTAR":0.0055556624,"MEAN_MOTION_DOT":0.00080221,"MEAN_MOTION_DDOT":0}]
